{
  "links" : {
    "next" : "https://api.nasa.gov/neo/rest/v1/feed?start_date=1999-11-16&end_date=1999-11-16&detailed=true&api_key=t0TVs3DtDT2H8Oy2Zy8m2eVrNsAVKAexjcZXUckd",
    "prev" : "https://api.nasa.gov/neo/rest/v1/feed?start_date=1999-11-14&end_date=1999-11-14&detailed=true&api_key=t0TVs3DtDT2H8Oy2Zy8m2eVrNsAVKAexjcZXUckd",
    "self" : "https://api.nasa.gov/neo/rest/v1/feed?start_date=1999-11-15&end_date=1999-11-15&detailed=true&api_key=t0TVs3DtDT2H8Oy2Zy8m2eVrNsAVKAexjcZXUckd"
  },
  "element_count" : 4,
  "near_earth_objects" : {
    "1999-11-15" : [ {
      "links" : {
        "self" : "https://api.nasa.gov/neo/rest/v1/neo/2066959?api_key=t0TVs3DtDT2H8Oy2Zy8m2eVrNsAVKAexjcZXUckd"
      },
      "neo_reference_id" : "2066959",
      "name" : "66959 (1999 XO35)",
      "nasa_jpl_url" : "http://ssd.jpl.nasa.gov/sbdb.cgi?sstr=2066959",
      "absolute_magnitude_h" : 16.6,
      "estimated_diameter" : {
        "kilometers" : {
          "estimated_diameter_min" : 1.2721987854,
          "estimated_diameter_max" : 2.844722965
        },
        "meters" : {
          "estimated_diameter_min" : 1272.1987853936,
          "estimated_diameter_max" : 2844.7229650327
        },
        "miles" : {
          "estimated_diameter_min" : 0.7905074315,
          "estimated_diameter_max" : 1.7676283535
        },
        "feet" : {
          "estimated_diameter_min" : 4173.8806630706,
          "estimated_diameter_max" : 9333.0808925979
        }
      },
      "is_potentially_hazardous_asteroid" : false,
      "close_approach_data" : [ {
        "close_approach_date" : "1999-11-15",
        "epoch_date_close_approach" : 942652800000,
        "relative_velocity" : {
          "kilometers_per_second" : "10.9898303552",
          "kilometers_per_hour" : "39563.3892787139",
          "miles_per_hour" : "24583.1515215431"
        },
        "miss_distance" : {
          "astronomical" : "0.3221969655",
          "lunar" : "125.3346176147",
          "kilometers" : "48199980",
          "miles" : "29950078"
        },
        "orbiting_body" : "Earth"
      } ],
      "orbital_data" : {
        "orbit_id" : "96",
        "orbit_determination_date" : "2017-04-06 09:28:50",
        "orbit_uncertainty" : "0",
        "minimum_orbit_intersection" : ".271721",
        "jupiter_tisserand_invariant" : "3.127",
        "epoch_osculation" : "2458000.5",
        "eccentricity" : ".5677918155474719",
        "semi_major_axis" : "2.538099716763992",
        "inclination" : "20.56416175679819",
        "ascending_node_longitude" : "82.13431774602704",
        "orbital_period" : "1476.935222486189",
        "perihelion_distance" : "1.096987470542041",
        "perihelion_argument" : "293.2530912944212",
        "aphelion_distance" : "3.979211962985943",
        "perihelion_time" : "2457347.292225930174",
        "mean_anomaly" : "159.2180855903018",
        "mean_motion" : ".2437479955241343",
        "equinox" : "J2000"
      }
    }, {
      "links" : {
        "self" : "https://api.nasa.gov/neo/rest/v1/neo/3564040?api_key=t0TVs3DtDT2H8Oy2Zy8m2eVrNsAVKAexjcZXUckd"
      },
      "neo_reference_id" : "3564040",
      "name" : "(2011 HO5)",
      "nasa_jpl_url" : "http://ssd.jpl.nasa.gov/sbdb.cgi?sstr=3564040",
      "absolute_magnitude_h" : 24.3,
      "estimated_diameter" : {
        "kilometers" : {
          "estimated_diameter_min" : 0.0366906138,
          "estimated_diameter_max" : 0.0820427065
        },
        "meters" : {
          "estimated_diameter_min" : 36.6906137531,
          "estimated_diameter_max" : 82.0427064882
        },
        "miles" : {
          "estimated_diameter_min" : 0.0227984834,
          "estimated_diameter_max" : 0.0509789586
        },
        "feet" : {
          "estimated_diameter_min" : 120.3760332259,
          "estimated_diameter_max" : 269.1689931548
        }
      },
      "is_potentially_hazardous_asteroid" : false,
      "close_approach_data" : [ {
        "close_approach_date" : "1999-11-15",
        "epoch_date_close_approach" : 942652800000,
        "relative_velocity" : {
          "kilometers_per_second" : "9.1682147798",
          "kilometers_per_hour" : "33005.5732074297",
          "miles_per_hour" : "20508.3796410276"
        },
        "miss_distance" : {
          "astronomical" : "0.0915183792",
          "lunar" : "35.6006507874",
          "kilometers" : "13690955",
          "miles" : "8507165"
        },
        "orbiting_body" : "Earth"
      } ],
      "orbital_data" : {
        "orbit_id" : "18",
        "orbit_determination_date" : "2017-04-06 08:53:37",
        "orbit_uncertainty" : "6",
        "minimum_orbit_intersection" : ".000882002",
        "jupiter_tisserand_invariant" : "5.806",
        "epoch_osculation" : "2458000.5",
        "eccentricity" : ".1365069796218705",
        "semi_major_axis" : "1.055270795838449",
        "inclination" : "11.29003071006239",
        "ascending_node_longitude" : "48.5037602518177",
        "orbital_period" : "395.9536091607221",
        "perihelion_distance" : ".9112189668153748",
        "perihelion_argument" : "289.4711155712679",
        "aphelion_distance" : "1.199322624861523",
        "perihelion_time" : "2458168.665941999399",
        "mean_anomaly" : "207.1039593549716",
        "mean_motion" : ".9091974202813035",
        "equinox" : "J2000"
      }
    }, {
      "links" : {
        "self" : "https://api.nasa.gov/neo/rest/v1/neo/3733862?api_key=t0TVs3DtDT2H8Oy2Zy8m2eVrNsAVKAexjcZXUckd"
      },
      "neo_reference_id" : "3733862",
      "name" : "(2015 VU64)",
      "nasa_jpl_url" : "http://ssd.jpl.nasa.gov/sbdb.cgi?sstr=3733862",
      "absolute_magnitude_h" : 30.6,
      "estimated_diameter" : {
        "kilometers" : {
          "estimated_diameter_min" : 0.0020162992,
          "estimated_diameter_max" : 0.0045085821
        },
        "meters" : {
          "estimated_diameter_min" : 2.0162991944,
          "estimated_diameter_max" : 4.5085820617
        },
        "miles" : {
          "estimated_diameter_min" : 0.0012528698,
          "estimated_diameter_max" : 0.0028015021
        },
        "feet" : {
          "estimated_diameter_min" : 6.615155049,
          "estimated_diameter_max" : 14.7919363714
        }
      },
      "is_potentially_hazardous_asteroid" : false,
      "close_approach_data" : [ {
        "close_approach_date" : "1999-11-15",
        "epoch_date_close_approach" : 942652800000,
        "relative_velocity" : {
          "kilometers_per_second" : "16.1994959837",
          "kilometers_per_hour" : "58318.18554118",
          "miles_per_hour" : "36236.6525658515"
        },
        "miss_distance" : {
          "astronomical" : "0.414170216",
          "lunar" : "161.1122131348",
          "kilometers" : "61958980",
          "miles" : "38499528"
        },
        "orbiting_body" : "Earth"
      } ],
      "orbital_data" : {
        "orbit_id" : "4",
        "orbit_determination_date" : "2017-04-06 08:30:50",
        "orbit_uncertainty" : "5",
        "minimum_orbit_intersection" : ".00106595",
        "jupiter_tisserand_invariant" : "6.408",
        "epoch_osculation" : "2458000.5",
        "eccentricity" : ".1080558088206794",
        "semi_major_axis" : ".9348806511776534",
        "inclination" : "2.483677641907112",
        "ascending_node_longitude" : "224.536346599378",
        "orbital_period" : "330.1662553155338",
        "perihelion_distance" : ".8338613662638487",
        "perihelion_argument" : "49.79865628236776",
        "aphelion_distance" : "1.035899936091458",
        "perihelion_time" : "2457884.232829648461",
        "mean_anomaly" : "126.7730443456517",
        "mean_motion" : "1.090359763313651",
        "equinox" : "J2000"
      }
    }, {
      "links" : {
        "self" : "https://api.nasa.gov/neo/rest/v1/neo/3763286?api_key=t0TVs3DtDT2H8Oy2Zy8m2eVrNsAVKAexjcZXUckd"
      },
      "neo_reference_id" : "3763286",
      "name" : "(2016 VS1)",
      "nasa_jpl_url" : "http://ssd.jpl.nasa.gov/sbdb.cgi?sstr=3763286",
      "absolute_magnitude_h" : 25.7,
      "estimated_diameter" : {
        "kilometers" : {
          "estimated_diameter_min" : 0.0192555078,
          "estimated_diameter_max" : 0.0430566244
        },
        "meters" : {
          "estimated_diameter_min" : 19.2555078188,
          "estimated_diameter_max" : 43.0566244241
        },
        "miles" : {
          "estimated_diameter_min" : 0.0119648141,
          "estimated_diameter_max" : 0.0267541378
        },
        "feet" : {
          "estimated_diameter_min" : 63.1742402722,
          "estimated_diameter_max" : 141.2618956756
        }
      },
      "is_potentially_hazardous_asteroid" : false,
      "close_approach_data" : [ {
        "close_approach_date" : "1999-11-15",
        "epoch_date_close_approach" : 942652800000,
        "relative_velocity" : {
          "kilometers_per_second" : "19.3052136401",
          "kilometers_per_hour" : "69498.769104418",
          "miles_per_hour" : "43183.8323915757"
        },
        "miss_distance" : {
          "astronomical" : "0.4311085441",
          "lunar" : "167.7012176514",
          "kilometers" : "64492920",
          "miles" : "40074044"
        },
        "orbiting_body" : "Earth"
      } ],
      "orbital_data" : {
        "orbit_id" : "7",
        "orbit_determination_date" : "2017-04-06 08:22:26",
        "orbit_uncertainty" : "6",
        "minimum_orbit_intersection" : ".0208915",
        "jupiter_tisserand_invariant" : "6.406",
        "epoch_osculation" : "2458000.5",
        "eccentricity" : ".2111628362730545",
        "semi_major_axis" : ".9322792017965656",
        "inclination" : "4.416967810606875",
        "ascending_node_longitude" : "230.5373919585746",
        "orbital_period" : "328.789106784589",
        "perihelion_distance" : ".7354164813468235",
        "perihelion_argument" : "314.1114934218853",
        "aphelion_distance" : "1.129141922246308",
        "perihelion_time" : "2458139.691419271854",
        "mean_anomaly" : "207.5955866424222",
        "mean_motion" : "1.094926786111132",
        "equinox" : "J2000"
      }
    } ]
  }
}